ONEWEB-0208             
1 48243U 21031AK  25320.48687709  .00000263  00000+0  67524-3 0  9996
2 48243  87.8991 332.0802 0001947  87.2633 272.8719 13.14502148220361
ONEWEB-0200             
1 48244U 21031AL  25320.45039365 -.00000220  00000+0 -62681-3 0  9997
2 48244  87.8989 332.0770 0001818  89.0292 271.1046 13.14501809220280
ONEWEB-0217             
1 48245U 21031AM  25320.46625261 -.00000015  00000+0 -74308-4 0  9997
2 48245  87.8999 332.0662 0002025  85.2814 274.8547 13.14501783220233
ONEWEB-0211             
1 48767U 21045A   25320.48181170  .00000098  00000+0  22415-3 0  9999
2 48767  87.8972 301.5667 0002287  82.9816 277.1574 13.16136452216460
ONEWEB-0223             
1 48768U 21045B   25320.68907782 -.00000034  00000+0 -12360-3 0  9997
2 48768  87.8964 301.5851 0002366  89.4235 270.7166 13.15546152216469
ONEWEB-0230             
1 48769U 21045C   25320.66056969 -.00000026  00000+0 -10312-3 0  9994
2 48769  87.8960 301.6224 0001785  89.8019 270.3316 13.15547455216728
ONEWEB-0237             
1 48770U 21045D   25320.42130097  .00000068  00000+0  14613-3 0  9997
2 48770  87.8965 301.6695 0002147  91.3807 268.7569 13.15546809216412
ONEWEB-0235             
1 48771U 21045E   25320.39594448  .00000143  00000+0  34521-3 0  9992
2 48771  87.8963 301.6449 0002380  91.3335 268.8068 13.15546723216402
ONEWEB-0242             
1 48772U 21045F   25320.69384649  .00000132  00000+0  31690-3 0  9998
2 48772  87.8973 301.5773 0001965  92.0447 268.0908 13.15547071216483
ONEWEB-0241             
1 48773U 21045G   25320.68116256 -.00000018  00000+0 -82815-4 0  9996
2 48773  87.8964 301.6198 0002332  83.6490 276.4905 13.15550333216394
ONEWEB-0243             
1 48774U 21045H   25320.48467792  .00000230  00000+0  57608-3 0  9994
2 48774  87.8967 301.6673 0002175  94.8702 265.2677 13.15547073216390
ONEWEB-0222             
1 48775U 21045J   25320.46802244 -.00001045  00000+0 -28101-2 0  9990
2 48775  87.8968 301.6237 0002041  96.9725 263.1637 13.15547137216437
ONEWEB-0244             
1 48776U 21045K   25320.64631194  .00000148  00000+0  35959-3 0  9996
2 48776  87.8976 301.5731 0002023  89.2979 270.8383 13.15547585217027
ONEWEB-0247             
1 48777U 21045L   25320.64313404  .00000162  00000+0  39710-3 0  9993
2 48777  87.8961 301.6347 0002727  99.3685 260.7754 13.15547077216466
ONEWEB-0245             
1 48778U 21045M   25320.71443691  .00000230  00000+0  57773-3 0  9999
2 48778  87.8963 301.5847 0002047  82.3058 277.8304 13.15547028216448
ONEWEB-0229             
1 48779U 21045N   25320.40544884  .00000243  00000+0  61160-3 0  9991
2 48779  87.8964 301.6450 0002007  92.7186 267.4175 13.15547647216431
ONEWEB-0228             
1 48780U 21045P   25320.43886777 -.00000096  00000+0 -28911-3 0  9991
2 48780  87.8969 301.6198 0002007  88.6827 271.4533 13.15547455216354
ONEWEB-0232             
1 48781U 21045Q   25320.64154715  .00000198  00000+0  49298-3 0  9997
2 48781  87.8975 301.5705 0001907  87.4320 272.7028 13.15546288216703
ONEWEB-0231             
1 48782U 21045R   25320.39119952  .00000090  00000+0  20529-3 0  9991
2 48782  87.8957 301.6667 0002164  92.5022 267.6356 13.15547294216361
ONEWEB-0234             
1 48783U 21045S   25320.65725203  .00000024  00000+0  28741-4 0  9995
2 48783  87.8966 301.5863 0001921  61.0182 299.1141 13.15546613216532
ONEWEB-0238             
1 48784U 21045T   25320.65754666 -.00000020  00000+0 -87393-4 0  9997
2 48784  87.8966 301.5805 0001856  76.8926 283.2411 13.15549056216433
ONEWEB-0240             
1 48785U 21045U   25320.67878507 -.00000060  00000+0 -19364-3 0  9997
2 48785  87.8984 301.5669 0002263  83.1178 277.0210 13.15550800216465
ONEWEB-0246             
1 48786U 21045V   25320.67325126 -.00000082  00000+0 -25154-3 0  9990
2 48786  87.8972 301.5802 0001956  91.6336 268.5019 13.15547728216333
ONEWEB-0210             
1 48787U 21045W   25320.41972443  .00000110  00000+0  25689-3 0  9996
2 48787  87.8974 301.6302 0002314 101.1025 259.0366 13.15547474216342
ONEWEB-0214             
1 48788U 21045X   25320.65661264 -.00000048  00000+0 -16125-3 0  9996
2 48788  87.8984 301.5716 0002057  99.5242 260.6121 13.15549635216345
ONEWEB-0221             
1 48789U 21045Y   25320.66373323 -.00000051  00000+0 -16906-3 0  9995
2 48789  87.8963 301.5886 0002124  88.0692 272.0681 13.15546895216431
ONEWEB-0213             
1 48790U 21045Z   25320.42448512 -.00000099  00000+0 -29661-3 0  9998
2 48790  87.8965 301.6450 0002130  89.9253 270.2121 13.15547739216463
ONEWEB-0212             
1 48791U 21045AA  25320.47756854  .00000139  00000+0  33543-3 0  9992
2 48791  87.8972 301.6225 0001882  84.7412 275.3933 13.15548639216462
ONEWEB-0227             
1 48792U 21045AB  25320.47675488  .00000089  00000+0  20284-3 0  9998
2 48792  87.8960 301.6357 0002055  88.0832 272.0534 13.15546567216416
ONEWEB-0226             
1 48793U 21045AC  25320.39437285  .00000214  00000+0  53366-3 0  9998
2 48793  87.8960 301.6607 0002139  95.2565 264.8809 13.15547115216370
ONEWEB-0224             
1 48794U 21045AD  25320.66215970 -.00000047  00000+0 -15850-3 0  9996
2 48794  87.8964 301.6421 0002621  71.0444 289.0970 13.15547999216337
ONEWEB-0233             
1 48795U 21045AE  25320.66676550 -.00000019  00000+0 -83595-4 0  9993
2 48795  87.8962 301.6522 0002212  86.0632 274.0751 13.15547491216359
ONEWEB-0190             
1 48796U 21045AF  25320.65422501 -.00000171  00000+0 -48911-3 0  9999
2 48796  87.8962 301.6166 0002650  93.6505 266.4929 13.15548230216425
ONEWEB-0236             
1 48797U 21045AG  25320.44348934 -.00000016  00000+0 -76974-4 0  9993
2 48797  87.8960 301.6697 0001798  83.3209 276.8126 13.15547831216286
ONEWEB-0248             
1 48798U 21045AH  25320.68434716 -.00000131  00000+0 -38220-3 0  9993
2 48798  87.8975 301.5824 0002493  82.7337 277.4077 13.15547665216470
ONEWEB-0225             
1 48799U 21045AJ  25320.47835744  .00000181  00000+0  44794-3 0  9993
2 48799  87.8965 301.6500 0002506  93.0395 267.1022 13.15548490216457
ONEWEB-0215             
1 48800U 21045AK  25320.67642053 -.00000156  00000+0 -44819-3 0  9999
2 48800  87.8974 301.5678 0002623  88.7655 271.3776 13.15548061216351
ONEWEB-0216             
1 48801U 21045AL  25320.45774656 -.00000038  00000+0 -13489-3 0  9999
2 48801  87.8962 301.6457 0001895  93.2467 266.8880 13.15547086216336
ONEWEB-0239             
1 48802U 21045AM  25320.46251306  .00000015  00000+0  52576-5 0  9998
2 48802  87.8963 301.6597 0002697  82.5796 277.5641 13.15548679216377
ONEWEB-0249             
1 48967U 21060A   25320.41259755  .00000090  00000+0  20143-3 0  9994
2 48967  87.9012 271.1525 0002011  80.7049 279.4309 13.16592964211619
ONEWEB-0250             
1 48968U 21060B   25320.78918852  .00000106  00000+0  21145-3 0  9996
2 48968  87.9012 269.5281 0002511  58.0425 302.0955 13.25818327212076
ONEWEB-0252             
1 48970U 21060D   25320.59627391 -.00000025  00000+0 -10011-3 0  9995
2 48970  87.9012 271.1092 0001887  88.3878 271.7469 13.16593837211685
ONEWEB-0253             
1 48971U 21060E   25320.58519206  .00000096  00000+0  21658-3 0  9995
2 48971  87.9015 271.1156 0002089  82.6113 277.5256 13.16594276211613
ONEWEB-0254             
1 48972U 21060F   25320.59469517  .00000018  00000+0  13152-4 0  9991
2 48972  87.9019 271.1038 0002304  80.2149 279.9242 13.16594278211613
ONEWEB-0255             
1 48973U 21060G   25320.78466854  .00000114  00000+0  26371-3 0  9997
2 48973  87.9009 271.0845 0002129  79.9868 280.1503 13.16593373211716
ONEWEB-0256             
1 48974U 21060H   25320.81078772  .00000074  00000+0  16068-3 0  9997
2 48974  87.9005 271.0891 0001801  81.9121 278.2214 13.16592445211687
ONEWEB-0257             
1 48975U 21060J   25320.61525648  .00000110  00000+0  25335-3 0  9993
2 48975  87.9014 271.1037 0002027  83.3796 276.7566 13.16592591211614
ONEWEB-0258             
1 48976U 21060K   25320.61684261  .00000006  00000+0 -19234-4 0  9998
2 48976  87.9003 271.1204 0001964  77.9079 282.2272 13.16592934211629
ONEWEB-0259             
1 48977U 21060L   25320.38251511  .00000055  00000+0  10952-3 0  9991
2 48977  87.9015 271.1591 0002077  80.4463 279.6902 13.16592425211629
ONEWEB-0260             
1 48978U 21060M   25320.60179832 -.00000005  00000+0 -45904-4 0  9995
2 48978  87.9003 271.1321 0001683  92.4054 267.7270 13.16596584211636
ONEWEB-0261             
1 48979U 21060N   25320.57173597  .00000088  00000+0  19737-3 0  9997
2 48979  87.9006 271.1400 0002255  86.9599 273.1790 13.16596014211687
ONEWEB-0262             
1 48980U 21060P   25320.77991924  .00000114  00000+0  26446-3 0  9998
2 48980  87.9014 271.0693 0002138  74.5111 285.6256 13.16593119211671
ONEWEB-0263             
1 48981U 21060Q   25320.58359718 -.00000020  00000+0 -86930-4 0  9990
2 48981  87.9007 271.1245 0002290  84.2396 275.8996 13.16593178211611
ONEWEB-0264             
1 48982U 21060R   25320.62082058  .00000017  00000+0  11488-4 0  9996
2 48982  87.9003 271.1216 0001953  87.3112 272.8242 13.16595330211625
ONEWEB-0266             
1 48984U 21060T   25320.41418937  .00000083  00000+0  18451-3 0  9993
2 48984  87.9015 271.1460 0001932  74.2253 285.9091 13.16593359211580
ONEWEB-0267             
1 48985U 21060U   25320.57727835  .00000037  00000+0  63756-4 0  9999
2 48985  87.9012 271.1137 0002089  84.8318 275.3052 13.16594556211616
ONEWEB-0268             
1 48986U 21060V   25320.62159829  .00000106  00000+0  24291-3 0  9995
2 48986  87.9014 271.1126 0001876  81.7669 278.3675 13.16592938211880
ONEWEB-0269             
1 48987U 21060W   25320.83059832  .00000030  00000+0  45120-4 0  9993
2 48987  87.9002 271.0953 0001717  82.2608 277.8718 13.16593866211689
ONEWEB-0270             
1 48988U 21060X   25320.62002455  .00000037  00000+0  61937-4 0  9991
2 48988  87.9014 271.1147 0002324  79.6451 280.4942 13.16593809211697
